0 NORAD341
1 38341U 12025E   22130.59854921  .00000875  00000+0  10824-3 0  9997
2 38341  98.5098 343.3468 0055126 167.2367 193.0256 14.84626597540032
